NORAD_CAT_ID,OBJECT_NAME,OBJECT_TYPE,EPOCH,MEAN_MOTION,ECCENTRICITY,INCLINATION,RA_OF_ASC_NODE,ARG_OF_PERICENTER,MEAN_ANOMALY,BSTAR,MEAN_MOTION_DOT,MEAN_MOTION_DDOT,TLE_LINE0,TLE_LINE1,TLE_LINE2,SEMIMAJOR_AXIS,PERIOD,APOGEE,PERIGEE,DECAYED
53571.0,STARLINK-4584,PAYLOAD,2024-03-06 12:42:32,15.08852667,0.0001446,53.2164,105.3501,95.3713,264.7444,8.8318e-05,1.118e-05,0.0,0 STARLINK-4584,1 53571U 22101AW  24066.52954218  .00001118  00000-0  88318-4 0  9994,2 53571  53.2164 105.3501 0001446  95.3713 264.7444 15.08852667 86454,6917.842,95.437,540.707,538.706,0.0
53571.0,STARLINK-4584,PAYLOAD,2024-03-07 03:01:01,15.08836314,0.0001958,53.2158,102.6742,91.7244,268.3973,0.00019518,2.819e-05,0.0,0 STARLINK-4584,1 53571U 22101AW  24067.12571539  .00002819  00000-0  19518-3 0  9996,2 53571  53.2158 102.6742 0001958  91.7244 268.3973 15.08836314 85852,6917.892,95.438,541.111,538.402,0.0
53571.0,STARLINK-4584,PAYLOAD,2024-03-07 09:22:34,15.0883659,0.0001573,53.2167,101.4879,98.3315,261.7855,0.00016506,2.34e-05,0.0,0 STARLINK-4584,1 53571U 22101AW  24067.39067549  .00002340  00000-0  16506-3 0  9999,2 53571  53.2167 101.4879 0001573  98.3315 261.7855 15.08836590 86588,6917.891,95.438,540.844,538.668,0.0
53571.0,STARLINK-4584,PAYLOAD,2024-03-08 10:48:44,15.08847625,0.0001751,53.2167,96.7308,111.6803,248.4376,0.00011532,1.548e-05,0.0,0 STARLINK-4584,1 53571U 22101AW  24068.45050994  .00001548  00000-0  11532-3 0  9996,2 53571  53.2167  96.7308 0001751 111.6803 248.4376 15.08847625 86053,6917.857,95.437,540.933,538.511,0.0
53571.0,STARLINK-4584,PAYLOAD,2024-03-08 18:45:39,15.08843362,0.0001589,53.2164,95.2434,93.5519,266.5655,-2.8828e-05,-7.47e-06,0.0,0 STARLINK-4584,1 53571U 22101AW  24068.78171178 -.00000747  00000-0 -28828-4 0  9999,2 53571  53.2164  95.2434 0001589  93.5519 266.5655 15.08843362 86791,6917.87,95.437,540.834,538.636,0.0
53571.0,STARLINK-4584,PAYLOAD,2024-03-09 10:39:31,15.08845686,0.0001631,53.2166,92.2679,90.0334,270.0845,0.00015315,2.151e-05,0.0,0 STARLINK-4584,1 53571U 22101AW  24069.44411179  .00002151  00000-0  15315-3 0  9996,2 53571  53.2166  92.2679 0001631  90.0334 270.0845 15.08845686 86204,6917.863,95.437,540.856,538.6,0.0
53571.0,STARLINK-4584,PAYLOAD,2024-03-09 18:36:26,15.08848033,0.000154,53.2167,90.7777,84.8441,275.2727,-0.00024761,-4.227e-05,0.0,0 STARLINK-4584,1 53571U 22101AW  24069.77530488 -.00004227  00000-0 -24761-3 0  9990,2 53571  53.2167  90.7777 0001540  84.8441 275.2727 15.08848033 86942,6917.856,95.437,540.786,538.655,0.0
53571.0,STARLINK-4584,PAYLOAD,2024-03-10 00:57:59,15.08839961,0.0002016,53.2164,89.5912,85.9499,274.1724,3.3455e-05,2.44e-06,0.0,0 STARLINK-4584,1 53571U 22101AW  24070.04027610  .00000244  00000-0  33455-4 0  9994,2 53571  53.2164  89.5912 0002016  85.9499 274.1724 15.08839961 86293,6917.881,95.438,541.14,538.351,0.0
53571.0,STARLINK-4584,PAYLOAD,2024-03-10 08:54:55,15.08838601,0.0001396,53.2151,88.1049,90.308,269.8072,-7.9508e-06,-4.14e-06,0.0,0 STARLINK-4584,1 53571U 22101AW  24070.37147565 -.00000414  00000-0 -79508-5 0  9993,2 53571  53.2151  88.1049 0001396  90.3080 269.8072 15.08838601 87031,6917.885,95.438,540.715,538.784,0.0
53571.0,STARLINK-4584,PAYLOAD,2024-03-10 18:27:14,15.08841352,0.0001466,53.2169,86.319,91.4007,268.7153,9.9209e-05,1.291e-05,0.0,0 STARLINK-4584,1 53571U 22101AW  24070.76891519  .00001291  00000-0  99209-4 0  9992,2 53571  53.2169  86.3190 0001466  91.4007 268.7153 15.08841352 87097,6917.876,95.437,540.755,538.727,0.0
53571.0,STARLINK-4584,PAYLOAD,2024-03-11 07:10:18,15.08849608,0.000145,53.2152,83.9406,91.9993,268.1165,0.00017289,2.465e-05,0.0,0 STARLINK-4584,1 53571U 22101AW  24071.29883059  .00002465  00000-0  17289-3 0  9992,2 53571  53.2152  83.9406 0001450  91.9993 268.1165 15.08849608 86485,6917.851,95.437,540.719,538.713,0.0
53571.0,STARLINK-4584,PAYLOAD,2024-03-11 18:18:01,15.08843181,0.0001382,53.2149,81.8586,89.4493,270.6658,9.1118e-05,1.163e-05,0.0,0 STARLINK-4584,1 53571U 22101AW  24071.76251313  .00001163  00000-0  91118-4 0  9994,2 53571  53.2149  81.8586 0001382  89.4493 270.6658 15.08843181 86551,6917.871,95.437,540.692,538.78,0.0
53571.0,STARLINK-4584,PAYLOAD,2024-03-12 05:25:43,15.08830752,0.0001311,53.2171,79.7764,93.7942,266.32,0.00014098,1.956e-05,0.0,0 STARLINK-4584,1 53571U 22101AW  24072.22619984  .00001956  00000-0  14098-3 0  9999,2 53571  53.2171  79.7764 0001311  93.7942 266.3200 15.08830752 86622,6917.909,95.438,540.681,538.867,0.0
53571.0,STARLINK-4584,PAYLOAD,2024-03-12 10:11:52,15.08838063,0.0001533,53.2172,78.8841,94.3511,265.7656,3.5694e-05,2.8e-06,0.0,0 STARLINK-4584,1 53571U 22101AW  24072.42491731  .00000280  00000-0  35694-4 0  9994,2 53571  53.2172  78.8841 0001533  94.3511 265.7656 15.08838063 87345,6917.886,95.438,540.812,538.691,0.0
53571.0,STARLINK-4584,PAYLOAD,2024-03-13 05:16:29,15.08848999,0.0001589,53.2171,75.3157,93.7617,266.3557,4.0517e-05,3.57e-06,0.0,0 STARLINK-4584,1 53571U 22101AW  24073.21978870  .00000357  00000-0  40517-4 0  9991,2 53571  53.2171  75.3157 0001589  93.7617 266.3557 15.08848999 86779,6917.853,95.437,540.817,538.619,0.0
53571.0,STARLINK-4584,PAYLOAD,2024-03-13 06:51:52,15.08848468,0.0001433,53.2167,75.019,87.6431,272.4725,6.8303e-05,7.99e-06,0.0,0 STARLINK-4584,1 53571U 22101AW  24073.28602805  .00000799  00000-0  68303-4 0  9993,2 53571  53.2167  75.0190 0001433  87.6431 272.4725 15.08848468 87476,6917.855,95.437,540.711,538.728,0.0
53571.0,STARLINK-4584,PAYLOAD,2024-03-14 05:07:17,15.08838568,0.0001379,53.2163,70.8548,87.5018,272.6132,9.1105e-05,1.162e-05,0.0,0 STARLINK-4584,1 53571U 22101AW  24074.21339443  .00001162  00000-0  91105-4 0  9993,2 53571  53.2163  70.8548 0001379  87.5018 272.6132 15.08838568 86924,6917.885,95.438,540.704,538.796,0.0
53571.0,STARLINK-4584,PAYLOAD,2024-03-14 06:42:40,15.08840071,0.0001356,53.2163,70.5576,86.8482,273.2665,0.00010347,1.359e-05,0.0,0 STARLINK-4584,1 53571U 22101AW  24074.27963336  .00001359  00000-0  10347-3 0  9999,2 53571  53.2163  70.5576 0001356  86.8482 273.2665 15.08840071 87622,6917.88,95.438,540.683,538.807,0.0
53571.0,STARLINK-4584,PAYLOAD,2024-03-15 04:58:04,15.0883665,0.0001493,53.217,66.3965,86.3233,273.793,-3.6223e-05,-8.64e-06,0.0,0 STARLINK-4584,1 53571U 22101AW  24075.20700153 -.00000864  00000-0 -36223-4 0  9993,2 53571  53.2170  66.3965 0001493  86.3233 273.7930 15.08836650 87073,6917.891,95.438,540.788,538.723,0.0
53571.0,STARLINK-4584,PAYLOAD,2024-03-15 08:08:50,15.08840178,0.0001526,53.2179,65.8041,92.8776,267.2391,4.8242e-06,-2.11e-06,0.0,0 STARLINK-4584,1 53571U 22101AW  24075.33947814 -.00000211  00000-0  48242-5 0  9994,2 53571  53.2179  65.8041 0001526  92.8776 267.2391 15.08840178 87789,6917.88,95.438,540.801,538.689,0.0
53571.0,STARLINK-4584,PAYLOAD,2024-03-16 07:59:37,15.08847981,0.0001898,53.2178,61.343,101.5974,258.5231,-5.7403e-05,-1.202e-05,0.0,0 STARLINK-4584,1 53571U 22101AW  24076.33307715 -.00001202  00000-0 -57403-4 0  9995,2 53571  53.2178  61.3430 0001898 101.5974 258.5231 15.08847981 87247,6917.856,95.437,541.034,538.408,0.0
53571.0,STARLINK-4584,PAYLOAD,2024-03-17 04:39:38,15.08839013,0.0001622,53.2179,57.4717,97.4719,262.6457,6.9488e-05,8.18e-06,0.0,0 STARLINK-4584,1 53571U 22101AW  24077.19420119  .00000818  00000-0  69488-4 0  9990,2 53571  53.2179  57.4717 0001622  97.4719 262.6457 15.08839013 87374,6917.883,95.438,540.87,538.626,0.0
53571.0,STARLINK-4584,PAYLOAD,2024-03-17 07:50:25,15.08841186,0.0001616,53.2181,56.8749,93.4927,266.625,8.5339e-05,1.07e-05,0.0,0 STARLINK-4584,1 53571U 22101AW  24077.32667955  .00001070  00000-0  85339-4 0  9990,2 53571  53.2181  56.8749 0001616  93.4927 266.6250 15.08841186 88083,6917.877,95.437,540.86,538.624,0.0
53571.0,STARLINK-4584,PAYLOAD,2024-03-18 06:05:49,15.08842519,0.0001794,53.2193,52.7068,79.6382,280.4812,6.7837e-05,7.92e-06,0.0,0 STARLINK-4584,1 53571U 22101AW  24078.25404073  .00000792  00000-0  67837-4 0  9996,2 53571  53.2193  52.7068 0001794  79.6382 280.4812 15.08842519 87531,6917.873,95.437,540.979,538.497,0.0
53571.0,STARLINK-4584,PAYLOAD,2024-03-19 04:21:13,15.08844539,0.000207,53.2202,48.5445,69.8127,290.3087,6.7332e-05,7.84e-06,0.0,0 STARLINK-4584,1 53571U 22101AW  24079.18140094  .00000784  00000-0  67332-4 0  9990,2 53571  53.2202  48.5445 0002070  69.8127 290.3087 15.08844539 88360,6917.867,95.437,541.164,538.3,0.0
53571.0,STARLINK-4584,PAYLOAD,2024-03-19 21:50:27,15.08847927,0.0001758,53.2187,45.2836,79.0071,281.1119,7.9309e-05,9.75e-06,0.0,0 STARLINK-4584,1 53571U 22101AW  24079.91003677  .00000975  00000-0  79309-4 0  9995,2 53571  53.2187  45.2836 0001758  79.0071 281.1119 15.08847927 87786,6917.856,95.437,540.937,538.505,0.0
53571.0,STARLINK-4584,PAYLOAD,2024-03-20 04:11:59,15.08851183,0.000153,53.2187,44.0958,94.8768,265.2399,9.7932e-05,1.271e-05,0.0,0 STARLINK-4584,1 53571U 22101AW  24080.17499214  .00001271  00000-0  97932-4 0  9993,2 53571  53.2187  44.0958 0001530  94.8768 265.2399 15.08851183 88518,6917.846,95.437,540.77,538.653,0.0
53571.0,STARLINK-4584,PAYLOAD,2024-03-21 04:02:47,15.0884005,0.0001518,53.2188,39.6352,108.5755,251.5403,3.5553e-06,-2.31e-06,0.0,0 STARLINK-4584,1 53571U 22101AW  24081.16860119 -.00000231  00000-0  35553-5 0  9997,2 53571  53.2188  39.6352 0001518 108.5755 251.5403 15.08840050 87976,6917.88,95.438,540.795,538.695,0.0
53571.0,STARLINK-4584,PAYLOAD,2024-03-21 13:35:05,15.08841868,0.0001312,53.2183,37.8467,92.6259,267.4883,-8.7054e-06,-4.26e-06,0.0,0 STARLINK-4584,1 53571U 22101AW  24081.56604033 -.00000426  00000-0 -87054-5 0  9992,2 53571  53.2183  37.8467 0001312  92.6259 267.4883 15.08841868 88722,6917.875,95.437,540.647,538.832,0.0
53571.0,STARLINK-4584,PAYLOAD,2024-03-22 07:04:19,15.08857911,0.0001268,53.2183,34.5753,95.6091,264.5046,9.054e-05,1.154e-05,0.0,0 STARLINK-4584,1 53571U 22101AW  24082.29466615  .00001154  00000-0  90540-4 0  9995,2 53571  53.2183  34.5753 0001268  95.6091 264.5046 15.08857911 88142,6917.826,95.436,540.568,538.813,0.0
